SL-14 R/B               
1 16792U 86046B   26090.15874670  .00000647  00000+0  71633-4 0  9994
2 16792  82.4807  59.8913 0023748 153.5509 206.6925 14.85611918129593
SL-14 R/B               
1 16882U 86055B   26090.15497889  .00000607  00000+0  67109-4 0  9996
2 16882  82.5168 106.4927 0017328 260.4085 168.6196 14.85662249122551
AJISAI (EGS)            
1 16908U 86061A   26090.17294550 -.00000100  00000+0 -19991-4 0  9990
2 16908  50.0116  27.2858 0011339 342.3606 156.4596 12.44515632470675
SL-14 R/B               
1 17567U 87024B   26090.18432146  .00000662  00000+0  72525-4 0  9991
2 17567  82.5256  72.5550 0018026 184.6239 175.4814 14.86153417 91325
COSMOS 1833             
1 17589U 87027A   26089.95564600 -.00000285  00000+0 -12677-3 0  9996
2 17589  70.9170 281.3199 0023165 183.0940 177.0042 14.13046471 13322
SL-16 R/B               
1 17590U 87027B   26090.07937383  .00000137  00000+0  91502-4 0  9994
2 17590  71.0018 231.4176 0002877  89.6471 270.4982 14.17166223 18378
SL-14 R/B               
1 17912U 87038B   26089.98823208  .00000639  00000+0  71158-4 0  9994
2 17912  82.4978 276.7375 0020763  94.0328 266.3262 14.85389208 82398
COSMOS 1844             
1 17973U 87041A   26090.10960418  .00000411  00000+0  23820-3 0  9996
2 17973  70.9016 348.9974 0031201 346.5229  13.5055 14.14558561  6616
SL-14 R/B               
1 18153U 87055B   26090.16338693  .00000555  00000+0  61112-4 0  9998
2 18153  82.5003 328.7956 0019388 305.2730  54.6672 14.85650956 73129
COSMOS 1867             
1 18187U 87060A   26089.81888097 -.00000024  00000+0  28497-4 0  9990
2 18187  65.0097 247.5298 0014861 279.9032  80.0374 14.31506381 22966
SL-14 R/B               
1 18749U 88001B   26089.95816968  .00000607  00000+0  67201-4 0  9995
2 18749  82.5159 175.3630 0018519 163.5694 196.6127 14.85551379 45182
COSMOS 1933             
1 18958U 88020A   26089.88276943  .00006289  00000+0  30617-3 0  9995
2 18958  82.5121 229.9384 0005342 118.3655 241.8118 15.18186716 53447
